0 FENGYUN 1C DEB
1 31710U 99025CDH 13281.47139966  .00006485  00000-0  79214-3 0  5172
2 31710 098.9783 159.9536 0181507 357.1594 002.8587 14.72639703341316
0 FENGYUN 1C DEB
1 31710U 99025CDH 13282.89820137  .00006678  00000-0  81532-3 0  5187
2 31710 098.9763 161.5242 0181348 352.2928 007.5716 14.72662288341520
0 FENGYUN 1C DEB
1 31710U 99025CDH 13283.84938892  .00006788  00000-0  82994-3 0  5197
2 31710 098.9760 162.5729 0180628 349.4209 010.3500 14.72677459341662
0 FENGYUN 1C DEB
1 31710U 99025CDH 13287.51819002  .00007657  00000-0  95041-3 0  5201
2 31710 098.9830 166.6454 0174192 338.3924 021.3977 14.72748100342203
0 FENGYUN 1C DEB
1 31710U 99025CDH 13289.48832287  .00010612  00000-0  12896-2 0  5211
2 31710 098.9749 168.8074 0179960 331.9903 027.5468 14.72819003342493
0 FENGYUN 1C DEB
1 31710U 99025CDH 13289.89586461  .00010968  00000-0  13275-2 0  5223
2 31710 098.9732 169.2580 0181124 330.7502 028.3947 14.72831814342551
0 FENGYUN 1C DEB
1 31710U 99025CDH 13290.43933750  .00008589  00000-0  10401-2 0  5237
2 31710 098.9790 169.8630 0181896 329.0231 029.8789 14.72816158342636
0 FENGYUN 1C DEB
1 31710U 99025CDH 13290.84698071  .00008742  00000-0  10531-2 0  5242
2 31710 098.9740 170.2990 0183518 327.9313 031.1236 14.72826669342694
0 FENGYUN 1C DEB
1 31710U 99025CDH 13290.91490833  .00008969  00000-0  10938-2 0  5259
2 31710 098.9745 170.3744 0179136 326.8867 032.2255 14.72832005342706
0 FENGYUN 1C DEB
1 31710U 99025CDH 13291.45836809  .00009170  00000-0  11280-2 0  5263
2 31710 098.9764 170.9836 0175888 325.4010 033.6435 14.72845501342788
0 FENGYUN 1C DEB
1 31710U 99025CDH 13292.88495418  .00009803  00000-0  11868-2 0  5274
2 31710 098.9729 172.5493 0180944 321.2916 037.6062 14.72884429342999
0 FENGYUN 1C DEB
1 31710U 99025CDH 13293.90392734  .00012764  00000-0  15476-2 0  5285
2 31710 098.9754 173.6900 0179153 318.2933 040.7744 14.72941852343141
0 FENGYUN 1C DEB
1 31710U 99025CDH 13295.46625014  .00011053  00000-0  13299-2 0  5290
2 31710 098.9639 175.3953 0182046 313.4894 044.9667 14.72960385343375
